OPTICUBE 04             
1 41851U 16067D   26068.51005515  .00003771  00000+0  24102-3 0  9992
2 41851  98.0811 275.5525 0017089  94.6311 265.6869 15.09188144510131
STARLINK-33926          
1 64147U 25112B   26068.71042499 -.00001271  00000+0 -83853-4 0  9994
2 64147  97.6022 121.5702 0000932 218.1619 141.9542 15.05657844 43312
