[{"OBJECT_NAME":"OPTICUBE 04","OBJECT_ID":"2016-067D","EPOCH":"2026-03-09T12:14:28.758048","MEAN_MOTION":15.09188378,"ECCENTRICITY":0.00170901,"INCLINATION":98.0811,"RA_OF_ASC_NODE":275.5525,"ARG_OF_PERICENTER":94.6311,"MEAN_ANOMALY":265.6869,"EPHEMERIS_TYPE":0,"CLASSIFICATION_TYPE":"U","NORAD_CAT_ID":41851,"ELEMENT_SET_NO":999,"REV_AT_EPOCH":51013,"BSTAR":0.00024566739,"MEAN_MOTION_DOT":3.845e-5,"MEAN_MOTION_DDOT":0},{"OBJECT_NAME":"STARLINK-33926","OBJECT_ID":"2025-112B","EPOCH":"2026-03-09T17:03:00.719136","MEAN_MOTION":15.05657844,"ECCENTRICITY":9.324e-5,"INCLINATION":97.6022,"RA_OF_ASC_NODE":121.5702,"ARG_OF_PERICENTER":218.1619,"MEAN_ANOMALY":141.9542,"EPHEMERIS_TYPE":0,"CLASSIFICATION_TYPE":"U","NORAD_CAT_ID":64147,"ELEMENT_SET_NO":999,"REV_AT_EPOCH":4331,"BSTAR":-8.3852954e-5,"MEAN_MOTION_DOT":-1.271e-5,"MEAN_MOTION_DDOT":0}]
